{
    "links": {
        "self": "http://www.neowsapp.com/rest/v1/neo/3836305?api_key=iIulBulltgU6a56xZRHN4H3l9WmuAYTsLGpBGhQ2"
    },
    "id": "3836305",
    "neo_reference_id": "3836305",
    "name": "(2018 WS1)",
    "designation": "2018 WS1",
    "nasa_jpl_url": "http://ssd.jpl.nasa.gov/sbdb.cgi?sstr=3836305",
    "absolute_magnitude_h": 23.3,
    "estimated_diameter": {
        "kilometers": {
            "estimated_diameter_min": 0.058150704,
            "estimated_diameter_max": 0.130028927
        },
        "meters": {
            "estimated_diameter_min": 58.1507039646,
            "estimated_diameter_max": 130.0289270043
        },
        "miles": {
            "estimated_diameter_min": 0.0361331611,
            "estimated_diameter_max": 0.0807962044
        },
        "feet": {
            "estimated_diameter_min": 190.7831555951,
            "estimated_diameter_max": 426.6041048727
        }
    },
    "is_potentially_hazardous_asteroid": false,
    "close_approach_data": [
        {
            "close_approach_date": "2018-11-21",
            "close_approach_date_full": "2018-Nov-21 01:19",
            "epoch_date_close_approach": 1542763140000,
            "relative_velocity": {
                "kilometers_per_second": "10.2190994371",
                "kilometers_per_hour": "36788.7579737155",
                "miles_per_hour": "22859.1035309456"
            },
            "miss_distance": {
                "astronomical": "0.0760061991",
                "lunar": "29.5664114499",
                "kilometers": "11370365.492155917",
                "miles": "7065217.4983369746"
            },
            "orbiting_body": "Earth"
        }
    ],
    "orbital_data": {
        "orbit_id": "3",
        "orbit_determination_date": "2018-12-06 06:55:20",
        "first_observation_date": "2018-11-28",
        "last_observation_date": "2018-12-03",
        "data_arc_in_days": 5,
        "observations_used": 28,
        "orbit_uncertainty": "8",
        "minimum_orbit_intersection": ".00743113",
        "jupiter_tisserand_invariant": "3.901",
        "epoch_osculation": "2458451.5",
        "eccentricity": ".4650904062497171",
        "semi_major_axis": "1.817027084783218",
        "inclination": "7.554681963843566",
        "ascending_node_longitude": "41.49431821281174",
        "orbital_period": "894.6239661863386",
        "perihelion_distance": ".9719452197546522",
        "perihelion_argument": "345.217963179475",
        "aphelion_distance": "2.662108949811784",
        "perihelion_time": "2458420.485413657789",
        "mean_anomaly": "12.48038450254348",
        "mean_motion": ".4024037065926497",
        "equinox": "J2000",
        "orbit_class": {
            "orbit_class_type": "APO",
            "orbit_class_description": "Near-Earth asteroid orbits which cross the Earth’s orbit similar to that of 1862 Apollo",
            "orbit_class_range": "a (semi-major axis) > 1.0 AU; q (perihelion) < 1.017 AU"
        }
    },
    "is_sentry_object": false
}